STARLINK-5681           
1 55469U 23015W   26034.04269253  .00000923  00000+0  83367-4 0  9990
2 55469  43.0027 154.1274 0001169 274.3519  85.7190 15.02540882165545
STARLINK-5708           
1 55470U 23015X   26033.37015194 -.00000217  00000+0 -96717-6 0  9993
2 55470  43.0023 157.6803 0001291 272.8849  87.1846 15.02535814165446
STARLINK-5711           
1 55471U 23015Y   26033.83327555  .00000072  00000+0  20431-4 0  9997
2 55471  43.0025 155.1320 0001471 269.0140  91.0533 15.02533788165511
STARLINK-5705           
1 55472U 23015Z   26033.56663215 -.00000294  00000+0 -67077-5 0  9990
2 55472  43.0053 144.4312 0001653 270.1338  89.9315 15.02530266165612
STARLINK-5689           
1 55474U 23015AB  26033.73668903 -.00000303  00000+0 -73542-5 0  9995
2 55474  43.0033 169.1241 0001522 263.3385  96.7284 15.02534277165345
STARLINK-5650           
1 55475U 23015AC  26033.69255287 -.00000212  00000+0 -64032-6 0  9992
2 55475  43.0029 155.7970 0001335 269.0824  90.9866 15.02533014165490
STARLINK-5685           
1 55477U 23015AE  26033.29516668  .00000328  00000+0  39343-4 0  9994
2 55477  43.0020 145.8284 0001298 281.7595  78.3102 15.02539607165571
STARLINK-5691           
1 55478U 23015AF  26033.36053634 -.00000284  00000+0 -59514-5 0  9998
2 55478  43.0039 145.4604 0001506 270.9283  89.1387 15.02536012165583
STARLINK-5688           
1 55479U 23015AG  26033.76938920  .00002329  00000+0  18743-3 0  9990
2 55479  43.0032 143.3664 0001681 264.0086  96.0565 15.02529323165648
STARLINK-5690           
1 55480U 23015AH  26033.45744611  .00000061  00000+0  19598-4 0  9991
2 55480  43.0014 170.3781 0001298 255.2069 104.8630 15.02534398165309
STARLINK-5694           
1 55481U 23015AJ  26033.73224985 -.00002585  00000+0 -17636-3 0  9995
2 55481  43.0029 169.0918 0001576 280.5612  79.5053 15.02539203165348
STARLINK-5692           
1 55483U 23015AL  26033.72225929 -.00000257  00000+0 -39749-5 0  9990
2 55483  43.0027 169.0133 0001294 258.3456 101.7241 15.02535304165348
STARLINK-5696           
1 55484U 23015AM  26033.64692437 -.00001423  00000+0 -90301-4 0  9990
2 55484  43.0014 169.3082 0000867 253.4446 106.6301 15.02532081165330
STARLINK-5695           
1 55485U 23015AN  26033.66245850  .00001847  00000+0  15182-3 0  9997
2 55485  43.0026 169.4233 0001302 273.1863  86.8831 15.02526732165333
STARLINK-5704           
1 55486U 23015AP  26033.71560288  .00005654  00000+0  43321-3 0  9995
2 55486  43.0015 168.9166 0001392 279.9240  80.1445 15.02539479165344
STARLINK-5701           
1 55487U 23015AQ  26033.73003752  .00002125  00000+0  17228-3 0  9993
2 55487  43.0028 169.0725 0001084 267.4395  92.6323 15.02542564165345
