[{"OBJECT_NAME":"STARLINK-5681","OBJECT_ID":"2023-015W","EPOCH":"2026-02-03T01:01:28.634592","MEAN_MOTION":15.02540882,"ECCENTRICITY":0.00011695,"INCLINATION":43.0027,"RA_OF_ASC_NODE":154.1274,"ARG_OF_PERICENTER":274.3519,"MEAN_ANOMALY":85.719,"EPHEMERIS_TYPE":0,"CLASSIFICATION_TYPE":"U","NORAD_CAT_ID":55469,"ELEMENT_SET_NO":999,"REV_AT_EPOCH":16554,"BSTAR":8.3366693e-5,"MEAN_MOTION_DOT":9.23e-6,"MEAN_MOTION_DDOT":0},{"OBJECT_NAME":"STARLINK-5708","OBJECT_ID":"2023-015X","EPOCH":"2026-02-02T08:53:01.127616","MEAN_MOTION":15.02535814,"ECCENTRICITY":0.00012917,"INCLINATION":43.0023,"RA_OF_ASC_NODE":157.6803,"ARG_OF_PERICENTER":272.8849,"MEAN_ANOMALY":87.1846,"EPHEMERIS_TYPE":0,"CLASSIFICATION_TYPE":"U","NORAD_CAT_ID":55470,"ELEMENT_SET_NO":999,"REV_AT_EPOCH":16544,"BSTAR":-9.67173e-7,"MEAN_MOTION_DOT":-2.17e-6,"MEAN_MOTION_DDOT":0},{"OBJECT_NAME":"STARLINK-5711","OBJECT_ID":"2023-015Y","EPOCH":"2026-02-02T19:59:55.007520","MEAN_MOTION":15.02533788,"ECCENTRICITY":0.00014711,"INCLINATION":43.0025,"RA_OF_ASC_NODE":155.132,"ARG_OF_PERICENTER":269.014,"MEAN_ANOMALY":91.0533,"EPHEMERIS_TYPE":0,"CLASSIFICATION_TYPE":"U","NORAD_CAT_ID":55471,"ELEMENT_SET_NO":999,"REV_AT_EPOCH":16551,"BSTAR":2.0430897e-5,"MEAN_MOTION_DOT":7.2e-7,"MEAN_MOTION_DDOT":0},{"OBJECT_NAME":"STARLINK-5705","OBJECT_ID":"2023-015Z","EPOCH":"2026-02-02T13:35:57.017760","MEAN_MOTION":15.02530266,"ECCENTRICITY":0.00016532,"INCLINATION":43.0053,"RA_OF_ASC_NODE":144.4312,"ARG_OF_PERICENTER":270.1338,"MEAN_ANOMALY":89.9315,"EPHEMERIS_TYPE":0,"CLASSIFICATION_TYPE":"U","NORAD_CAT_ID":55472,"ELEMENT_SET_NO":999,"REV_AT_EPOCH":16561,"BSTAR":-6.707749e-6,"MEAN_MOTION_DOT":-2.94e-6,"MEAN_MOTION_DDOT":0},{"OBJECT_NAME":"STARLINK-5689","OBJECT_ID":"2023-015AB","EPOCH":"2026-02-02T17:40:49.932192","MEAN_MOTION":15.02534277,"ECCENTRICITY":0.00015229,"INCLINATION":43.0033,"RA_OF_ASC_NODE":169.1241,"ARG_OF_PERICENTER":263.3385,"MEAN_ANOMALY":96.7284,"EPHEMERIS_TYPE":0,"CLASSIFICATION_TYPE":"U","NORAD_CAT_ID":55474,"ELEMENT_SET_NO":999,"REV_AT_EPOCH":16534,"BSTAR":-7.354161e-6,"MEAN_MOTION_DOT":-3.03e-6,"MEAN_MOTION_DDOT":0},{"OBJECT_NAME":"STARLINK-5650","OBJECT_ID":"2023-015AC","EPOCH":"2026-02-02T16:37:16.567968","MEAN_MOTION":15.02533014,"ECCENTRICITY":0.00013354,"INCLINATION":43.0029,"RA_OF_ASC_NODE":155.797,"ARG_OF_PERICENTER":269.0824,"MEAN_ANOMALY":90.9866,"EPHEMERIS_TYPE":0,"CLASSIFICATION_TYPE":"U","NORAD_CAT_ID":55475,"ELEMENT_SET_NO":999,"REV_AT_EPOCH":16549,"BSTAR":-6.40323e-7,"MEAN_MOTION_DOT":-2.12e-6,"MEAN_MOTION_DDOT":0},{"OBJECT_NAME":"STARLINK-5685","OBJECT_ID":"2023-015AE","EPOCH":"2026-02-02T07:05:02.401152","MEAN_MOTION":15.02539607,"ECCENTRICITY":0.00012984,"INCLINATION":43.002,"RA_OF_ASC_NODE":145.8284,"ARG_OF_PERICENTER":281.7595,"MEAN_ANOMALY":78.3102,"EPHEMERIS_TYPE":0,"CLASSIFICATION_TYPE":"U","NORAD_CAT_ID":55477,"ELEMENT_SET_NO":999,"REV_AT_EPOCH":16557,"BSTAR":3.9343292e-5,"MEAN_MOTION_DOT":3.28e-6,"MEAN_MOTION_DDOT":0},{"OBJECT_NAME":"STARLINK-5691","OBJECT_ID":"2023-015AF","EPOCH":"2026-02-02T08:39:10.339776","MEAN_MOTION":15.02536012,"ECCENTRICITY":0.00015062,"INCLINATION":43.0039,"RA_OF_ASC_NODE":145.4604,"ARG_OF_PERICENTER":270.9283,"MEAN_ANOMALY":89.1387,"EPHEMERIS_TYPE":0,"CLASSIFICATION_TYPE":"U","NORAD_CAT_ID":55478,"ELEMENT_SET_NO":999,"REV_AT_EPOCH":16558,"BSTAR":-5.951391e-6,"MEAN_MOTION_DOT":-2.84e-6,"MEAN_MOTION_DDOT":0},{"OBJECT_NAME":"STARLINK-5688","OBJECT_ID":"2023-015AG","EPOCH":"2026-02-02T18:27:55.226880","MEAN_MOTION":15.02529323,"ECCENTRICITY":0.00016816,"INCLINATION":43.0032,"RA_OF_ASC_NODE":143.3664,"ARG_OF_PERICENTER":264.0086,"MEAN_ANOMALY":96.0565,"EPHEMERIS_TYPE":0,"CLASSIFICATION_TYPE":"U","NORAD_CAT_ID":55479,"ELEMENT_SET_NO":999,"REV_AT_EPOCH":16564,"BSTAR":0.00018742706,"MEAN_MOTION_DOT":2.329e-5,"MEAN_MOTION_DDOT":0},{"OBJECT_NAME":"STARLINK-5690","OBJECT_ID":"2023-015AH","EPOCH":"2026-02-02T10:58:43.343904","MEAN_MOTION":15.02534398,"ECCENTRICITY":0.00012983,"INCLINATION":43.0014,"RA_OF_ASC_NODE":170.3781,"ARG_OF_PERICENTER":255.2069,"MEAN_ANOMALY":104.863,"EPHEMERIS_TYPE":0,"CLASSIFICATION_TYPE":"U","NORAD_CAT_ID":55480,"ELEMENT_SET_NO":999,"REV_AT_EPOCH":16530,"BSTAR":1.9598361e-5,"MEAN_MOTION_DOT":6.1e-7,"MEAN_MOTION_DDOT":0},{"OBJECT_NAME":"STARLINK-5694","OBJECT_ID":"2023-015AJ","EPOCH":"2026-02-02T17:34:26.387040","MEAN_MOTION":15.02539203,"ECCENTRICITY":0.00015768,"INCLINATION":43.0029,"RA_OF_ASC_NODE":169.0918,"ARG_OF_PERICENTER":280.5612,"MEAN_ANOMALY":79.5053,"EPHEMERIS_TYPE":0,"CLASSIFICATION_TYPE":"U","NORAD_CAT_ID":55481,"ELEMENT_SET_NO":999,"REV_AT_EPOCH":16534,"BSTAR":-0.00017636478,"MEAN_MOTION_DOT":-2.585e-5,"MEAN_MOTION_DDOT":0},{"OBJECT_NAME":"STARLINK-5692","OBJECT_ID":"2023-015AL","EPOCH":"2026-02-02T17:20:03.202656","MEAN_MOTION":15.02535304,"ECCENTRICITY":0.00012946,"INCLINATION":43.0027,"RA_OF_ASC_NODE":169.0133,"ARG_OF_PERICENTER":258.3456,"MEAN_ANOMALY":101.7241,"EPHEMERIS_TYPE":0,"CLASSIFICATION_TYPE":"U","NORAD_CAT_ID":55483,"ELEMENT_SET_NO":999,"REV_AT_EPOCH":16534,"BSTAR":-3.974884e-6,"MEAN_MOTION_DOT":-2.57e-6,"MEAN_MOTION_DDOT":0},{"OBJECT_NAME":"STARLINK-5696","OBJECT_ID":"2023-015AM","EPOCH":"2026-02-02T15:31:34.265568","MEAN_MOTION":15.02532081,"ECCENTRICITY":8.672e-5,"INCLINATION":43.0014,"RA_OF_ASC_NODE":169.3082,"ARG_OF_PERICENTER":253.4446,"MEAN_ANOMALY":106.6301,"EPHEMERIS_TYPE":0,"CLASSIFICATION_TYPE":"U","NORAD_CAT_ID":55484,"ELEMENT_SET_NO":999,"REV_AT_EPOCH":16533,"BSTAR":-9.0301184e-5,"MEAN_MOTION_DOT":-1.423e-5,"MEAN_MOTION_DDOT":0},{"OBJECT_NAME":"STARLINK-5695","OBJECT_ID":"2023-015AN","EPOCH":"2026-02-02T15:53:56.414400","MEAN_MOTION":15.02526732,"ECCENTRICITY":0.00013028,"INCLINATION":43.0026,"RA_OF_ASC_NODE":169.4233,"ARG_OF_PERICENTER":273.1863,"MEAN_ANOMALY":86.8831,"EPHEMERIS_TYPE":0,"CLASSIFICATION_TYPE":"U","NORAD_CAT_ID":55485,"ELEMENT_SET_NO":999,"REV_AT_EPOCH":16533,"BSTAR":0.00015181508,"MEAN_MOTION_DOT":1.847e-5,"MEAN_MOTION_DDOT":0},{"OBJECT_NAME":"STARLINK-5704","OBJECT_ID":"2023-015AP","EPOCH":"2026-02-02T17:10:28.088832","MEAN_MOTION":15.02539479,"ECCENTRICITY":0.0001392,"INCLINATION":43.0015,"RA_OF_ASC_NODE":168.9166,"ARG_OF_PERICENTER":279.924,"MEAN_ANOMALY":80.1445,"EPHEMERIS_TYPE":0,"CLASSIFICATION_TYPE":"U","NORAD_CAT_ID":55486,"ELEMENT_SET_NO":999,"REV_AT_EPOCH":16534,"BSTAR":0.0004332149,"MEAN_MOTION_DOT":5.654e-5,"MEAN_MOTION_DDOT":0},{"OBJECT_NAME":"STARLINK-5701","OBJECT_ID":"2023-015AQ","EPOCH":"2026-02-02T17:31:15.241728","MEAN_MOTION":15.02542564,"ECCENTRICITY":0.00010848,"INCLINATION":43.0028,"RA_OF_ASC_NODE":169.0725,"ARG_OF_PERICENTER":267.4395,"MEAN_ANOMALY":92.6323,"EPHEMERIS_TYPE":0,"CLASSIFICATION_TYPE":"U","NORAD_CAT_ID":55487,"ELEMENT_SET_NO":999,"REV_AT_EPOCH":16534,"BSTAR":0.00017228276,"MEAN_MOTION_DOT":2.125e-5,"MEAN_MOTION_DDOT":0}]
